HST                     
1 20580U 90037B   26160.25429042  .00004810  00000+0  15014-3 0  9993
2 20580  28.4711 134.7882 0001992  63.4353 296.6447 15.30659901787355
POLAR                   
1 23802U 96013A   26160.33474726  .00000117  00000+0  00000+0 0  9992
2 23802  79.8443 227.1442 6462788 209.3515  89.3681  1.29846146144757
SWAS                    
1 25560U 98071A   26160.52816789  .00003591  00000+0  22938-3 0  9998
2 25560  69.8963 247.2693 0008970 266.8049  93.2088 15.09579057496112
CXO                     
1 25867U 99040B   26161.44248451  .00000667  00000+0  00000+0 0  9995
2 25867  56.0540 116.8503 7852548 310.2578   0.2529  0.37805334 17299
XMM-NEWTON              
1 25989U 99066A   26161.36780906  .00000089  00000+0  00000+0 0  9993
2 25989  64.5271 283.0748 4677764  65.0342   0.0416  0.50122831 22976
TERRA                   
1 25994U 99068A   26160.49316787  .00000338  00000+0  77728-4 0  9999
2 25994  97.9459 210.3443 0001015 224.6888 242.2888 14.61096977408484
CLUSTER II-FM7 (SAMBA)  
1 26410U 00041A   26161.44626665  .00004459  00000+0  00000+0 0  9993
2 26410 149.9132  49.6129 9048191 266.6863 359.9829  0.44840364 20284
CLUSTER II-FM8 (TANGO)  
1 26464U 00045B   26159.43359147  .00004389  00000+0  00000+0 0  9992
2 26464 150.1534  50.2668 9049658 267.1780   3.1902  0.44405778 20277
ODIN                    
1 26702U 01007A   26160.08640460  .00135654  00000+0  97686-3 0  9990
2 26702  97.3859 200.5220 0006524 153.1212 207.0391 15.73146623388125
TIMED                   
1 26998U 01055B   26160.51478751  .00001262  00000+0  11820-3 0  9993
2 26998  74.0679 250.4663 0000682 350.5126   9.6046 14.95278201329674
CORIOLIS                
1 27640U 03001A   26160.51648534  .00000094  00000+0  64730-4 0  9990
2 27640  98.7125 167.5184 0013032 232.1709 127.8288 14.19942780213139
SORCE                   
1 27651U 03004A   26160.10335366  .00002505  00000+0  19008-3 0  9992
2 27651  39.9917 307.7981 0017671 349.7405  10.3026 15.03669281270686
MOST                    
1 27843U 03031D   26160.53803690  .00000067  00000+0  50605-4 0  9992
2 27843  98.7045 168.3708 0008684 275.4668  84.5519 14.21320935189624
SCISAT 1                
1 27858U 03036A   26160.52723866  .00000503  00000+0  68915-4 0  9996
2 27858  73.9286 186.5623 0008681 255.6810 104.3402 14.81440170230311
SWIFT                   
1 28485U 04047A   26160.55267191  .00052094  00000+0  44621-3 0  9992
2 28485  20.5525 243.7614 0002352 173.4015 186.6462 15.67605080185665
HINODE (SOLAR-B)        
1 29479U 06041A   26160.48645121  .00000693  00000+0  12751-3 0  9994
2 29479  98.0549 176.7525 0016353 316.1939  43.7969 14.68612510 53742
SHIJIAN-6 02A (SJ-6 02A)
1 29505U 06046A   26160.63745737  .00008119  00000+0  41582-3 0  9995
2 29505  97.6370 201.6479 0003942 141.8933 218.2579 15.16857713 71120
SHIJIAN-6 02B (SJ-6 02B)
1 29506U 06046B   26160.61523155  .00001559  00000+0  12547-3 0  9992
2 29506  97.7164 189.7206 0014819  82.0402 278.2504 15.01358781 69608
FGRST (GLAST)           
1 33053U 08029A   26160.56754933  .00003116  00000+0  11177-3 0  9990
2 33053  25.5823 257.3887 0007703 234.1461 125.8362 15.23911359994670
SDO                     
1 36395U 10005A   26160.45717389 -.00000063  00000+0  00000+0 0  9999
2 36395  34.6348  86.4608 0001571  53.7612 180.1782  1.00270666 59982
CRYOSAT 2               
1 36508U 10013A   26160.56920097  .00000117  00000+0  28356-4 0  9996
2 36508  92.0349 275.4502 0002215  86.5751 273.5710 14.51896813856974
X-SAT                   
1 37389U 11015C   26160.64334576  .00000101  00000+0  60445-4 0  9995
2 37389  98.3510 138.0265 0014446  10.4441 349.7037 14.25203794786603
GCOM-W1 (SHIZUKU)       
1 38337U 12025A   26160.42003381  .00000418  00000+0  10275-3 0  9990
2 38337  98.2020 101.0934 0001856  80.5804  30.4831 14.57117341747900
NUSTAR                  
1 38358U 12031A   26160.58337963  .00003911  00000+0  18887-3 0  9991
2 38358   6.0267  91.1687 0008204 344.6090  90.3186 15.08735195  1307
NEOSSAT                 
1 39089U 13009D   26160.47430590  .00000135  00000+0  61506-4 0  9999
2 39089  98.4176 340.6906 0009783 269.6435  90.3630 14.35823715695635
BRITE-AUSTRIA           
1 39091U 13009F   26160.47676852  .00000162  00000+0  69668-4 0  9992
2 39091  98.3993 340.1036 0008967 262.5738  97.4429 14.36539039695946
IRIS                    
1 39197U 13033A   26160.55531704  .00000969  00000+0  11710-3 0  9990
2 39197  97.9335 359.8563 0024140 347.4319  12.6291 14.85870096699247
HISAKI (SPRINT-A)       
1 39253U 13049A   26160.54268463  .00000126  00000+0  82607-4 0  9997
2 39253  29.7202 258.8784 0136887 314.9019  44.0512 13.55543891630388
CASSIOPE                
1 39265U 13055A   26160.48446878  .00041911 -57621-6  46184-3 0  9993
2 39265  80.9146  76.0689 0295286  88.2680 275.2346 15.24483794666492
STSAT-3                 
1 39422U 13066G   26160.58845841  .00002542  00000+0  19472-3 0  9992
2 39422  97.6213 130.5990 0011031  64.5653 295.6712 15.02710300683066
SWARM B                 
1 39451U 13067A   26160.60502989  .00003134  00000+0  11177-3 0  9993
2 39451  87.7440 344.6212 0003390  89.8611 270.3026 15.28505491682088
SWARM A                 
1 39452U 13067B   26160.47664568  .00010036  00000+0  17349-3 0  9997
2 39452  87.3329  59.1054 0002992  92.3947 267.7656 15.50798144705057
SWARM C                 
1 39453U 13067C   26160.47653050  .00009991  00000+0  17269-3 0  9991
2 39453  87.3329  57.6866 0002968  92.5362 267.6239 15.50800666705013
BRITE-CA1 (TORONTO)     
1 40020U 14033L   26160.36004237  .00000618  00000+0  10079-3 0  9991
2 40020  97.9729 289.4327 0077421 302.5173  56.8569 14.72665836641062
OCO 2                   
1 40059U 14035A   26160.53314468  .00000376  00000+0  93582-4 0  9996
2 40059  98.2016 101.9429 0001488  86.8396 273.2973 14.57105005634939
BRITE-PL2 (HEWELIUSZ)   
1 40119U 14049B   26160.54008978  .00001894  00000+0  18026-3 0  9990
2 40119  97.9090 272.4818 0015166 131.1884 229.0646 14.94569959640301
MMS 1                   
1 40482U 15011A   26160.58337963 -.00000009  00000+0  00000+0 0  9993
2 40482  72.1001 348.8939 8325280 167.3102 242.7615  0.28317420  1389
MMS 2                   
1 40483U 15011B   26160.58337963 -.00000009  00000+0  00000+0 0  9994
2 40483  72.1003 348.8961 8326063 167.3159 242.7498  0.28317433  1382
MMS 3                   
1 40484U 15011C   26160.58337963 -.00000009  00000+0  00000+0 0  9995
2 40484  72.1034 348.9006 8325250 167.3104 242.7462  0.28317390  1388
MMS 4                   
1 40485U 15011D   26160.58337963 -.00000009  00000+0  00000+0 0  9996
2 40485  72.0995 348.8963 8324855 167.3182 242.7346  0.28317373  1383
ASTROSAT                
1 40930U 15052A   26160.28770679  .00001533  00000+0  10479-3 0  9995
2 40930   5.9953 212.2248 0008529 281.7410  78.1761 14.82494301578654
DAMPE                   
1 41173U 15078A   26160.58566926  .00001513  00000+0  53372-4 0  9992
2 41173  97.4562 166.0156 0013727 100.5032 259.7756 15.30767038583385
PISAT                   
1 41784U 16059B   26160.51503089  .00000870  00000+0  15581-3 0  9998
2 41784  97.8178 161.2976 0027836 228.0857 131.7975 14.68970440518613
HXMT (HUIYAN)           
1 42758U 17034A   26160.63547740  .00004201  00000+0  20964-3 0  9992
2 42758  43.0132 225.0901 0030189  97.3392 263.0889 15.18425897496515
FLYING LAPTOP           
1 42831U 17042G   26160.58642477  .00003771  00000+0  29804-3 0  9993
2 42831  97.4658 316.4141 0019191 146.5534 213.6907 15.01097072485319
ZHANGHENG 1-01 (CSES-1) 
1 43194U 18015C   26160.63800179  .00005925  00000+0  27173-3 0  9998
2 43194  97.6865 326.1469 0017127 294.8498  65.0956 15.20714657463492
SALSAT                  
1 46495U 20068K   26160.49232390  .00007245  00000+0  25454-3 0  9991
2 46495  97.8855 163.0891 0008742 339.5990  20.4898 15.29688082314186
IXPE                    
1 49954U 21121A   26160.58337963  .00008963  00000+0  47764-3 0  9993
2 49954   0.2309  14.9857 0007518 325.7085 293.7309 15.10180153  5320
SMILE                   
1 69123U 26109A   26144.65318427 -.00001976  00000+0 -42379-3 0  9994
2 69123  70.0007 229.2745 0009123 259.5159 100.4951 14.57062785   802
